STARLINK-30251          
1 57532U 23115M   26067.83471449  .00001905  00000+0  80691-4 0  9997
2 57532  43.0011   6.1686 0001006 298.1512  61.9237 15.26742221142226
FOSSASAT-2E20 (TAT-O)   
1 63003U 25009DN  26068.70855016  .00016337  00000+0  61863-3 0  9998
2 63003  97.3231 146.2859 0002189 347.5575  12.5610 15.26991080121314
